{
  "fetched_at": "2026-05-24T12:57:38.736150+00:00",
  "satellites": {
    "57166": {
      "name": "Meteor M2-3",
      "tle_line1": "1 57166U 23091A   26144.20927245 -.00000014  00000+0  12528-4 0  9995",
      "tle_line2": "2 57166  98.6095 199.6762 0003028 228.2215 131.8706 14.24044424151102"
    },
    "59051": {
      "name": "Meteor M2-4",
      "tle_line1": "1 59051U 24039A   26144.19677721  .00000021  00000+0  29113-4 0  9997",
      "tle_line2": "2 59051  98.6999 103.7985 0006050 234.6733 125.3880 14.22426759115853"
    },
    "38771": {
      "name": "MetOp-B",
      "tle_line1": "1 38771U 12049A   26144.18612464  .00000075  00000+0  54318-4 0  9997",
      "tle_line2": "2 38771  98.6518 196.1623 0003334  70.9727 289.1811 14.21425172709856"
    },
    "43689": {
      "name": "MetOp-C",
      "tle_line1": "1 43689U 18087A   26144.13627226  .00000072  00000+0  52953-4 0  9996",
      "tle_line2": "2 43689  98.6655 204.1777 0000726 150.9324 209.1894 14.21504643391419"
    },
    "60543": {
      "name": "Arctic Weather Satellite",
      "tle_line1": "1 60543U 24149CD  26144.17591772  .00000567  00000+0  64628-4 0  9991",
      "tle_line2": "2 60543  97.6806 215.3267 0002585 152.8416 207.2938 14.89808922 95724"
    }
  }
}